OBJECT_NAME,OBJECT_ID,EPOCH,MEAN_MOTION,ECCENTRICITY,INCLINATION,RA_OF_ASC_NODE,ARG_OF_PERICENTER,MEAN_ANOMALY,EPHEMERIS_TYPE,CLASSIFICATION_TYPE,NORAD_CAT_ID,ELEMENT_SET_NO,REV_AT_EPOCH,BSTAR,MEAN_MOTION_DOT,MEAN_MOTION_DDOT
ICEYE-X43,2024-149BZ,2025-02-17T10:47:48.217632,14.95358750,.0002501,97.7230,127.0236,239.4282,120.6693,0,U,60539,999,2755,.30215E-3,.3277E-4,0
HAWK-10A,2024-149CA,2025-02-17T06:08:30.516000,14.94024061,.0002492,97.7338,126.9422,242.4424,117.6543,0,U,60540,999,2751,.29581E-3,.3099E-4,0
UMBRA-09,2024-149CB,2025-02-16T18:17:28.893408,15.00661034,.0002197,97.7283,127.2640,316.4503,43.6547,0,U,60541,999,2750,.15899E-2,.20102E-3,0
QPS-SAR-8 (AMATERU-IV),2024-149CC,2025-02-17T11:30:28.559808,14.96839912,.0003029,97.7245,127.3708,250.2091,109.8804,0,U,60542,999,2757,.10233E-2,.11683E-3,0
ARCTIC WEATHER SATELLITE,2024-149CD,2025-02-16T19:41:29.751072,14.89789118,.000086,97.7279,125.6624,276.5612,83.5508,0,U,60543,999,2703,.30972E-3,.2917E-4,0
CAPELLA-15 (ACADIA-5),2024-149CE,2025-02-17T02:33:39.975552,14.92449446,.0007628,97.7251,126.6970,242.6956,117.3486,0,U,60544,999,2750,.1113E-2,.11373E-3,0
HAWK-10B,2024-149CF,2025-02-17T06:08:19.728960,14.94025744,.0004374,97.7264,126.7588,271.5263,88.5456,0,U,60545,999,2751,.36369E-3,.3824E-4,0
ICEYE-X39,2024-149CG,2025-02-17T11:33:39.532320,14.95277050,.0003583,97.7219,127.1366,256.2417,103.8405,0,U,60546,999,2756,.97388E-3,.10678E-3,0
UMBRA-10,2024-149CH,2025-02-17T03:53:01.374144,15.00638766,.0001383,97.7283,127.6433,288.8098,71.2975,0,U,60547,999,2757,.17584E-2,.22232E-3,0
ICEYE-X33,2024-149CJ,2025-02-17T11:08:25.224576,14.96659684,.0004162,97.7255,127.3947,262.9046,97.1703,0,U,60548,999,2757,.74624E-3,.8462E-4,0
ICEYE-X40,2024-149CK,2025-02-16T18:52:54.966720,14.95609832,.0004032,97.7245,126.5472,264.0826,95.9936,0,U,60549,999,2746,.48434E-3,.5323E-4,0
SATELIOT_1,2024-149CL,2025-02-16T19:07:46.857504,14.95131005,.0006125,97.7185,126.4124,259.0909,100.9622,0,U,60550,999,2746,.44813E-3,.4862E-4,0
BRO-14,2024-149CM,2025-02-16T18:47:29.730336,14.94278134,.0005571,97.7314,126.5534,280.8355,79.2238,0,U,60551,999,2745,.19158E-3,.2E-4,0
SATELIOT_3,2024-149CN,2025-02-16T18:11:39.212736,14.95640488,.0006582,97.7255,126.6186,268.7814,91.2653,0,U,60552,999,2746,.52649E-3,.5798E-4,0
BRO-15,2024-149CP,2025-02-17T11:29:30.981120,14.94639003,.0006996,97.7237,127.1696,265.5068,94.5354,0,U,60553,999,2756,.26947E-3,.2864E-4,0
UM5-RIBAT,2024-149CQ,2025-02-17T03:59:30.602688,14.96417105,.0006999,97.7208,127.0389,253.6727,106.3725,0,U,60554,999,2753,.70581E-3,.7952E-4,0
UM5-EOSAT,2024-149CR,2025-02-17T04:52:15.455424,14.96783597,.0007637,97.7259,127.2954,265.1398,94.8951,0,U,60555,999,2754,.61891E-3,.7032E-4,0
KANYINI,2024-149CS,2025-02-16T22:13:43.880448,15.24304918,.0003359,97.4192,126.8647,162.0636,198.0721,0,U,60556,999,2797,.10587E-2,.25875E-3,0
TROOP-F2,2024-149CT,2025-02-17T03:31:56.671680,15.28573787,.0004712,97.4124,127.6348,162.9576,197.1823,0,U,60557,999,2805,.12066E-2,.33589E-3,0
FLOCK 4BE-35,2024-149CU,2025-02-16T18:57:38.039904,15.24490924,.0003369,97.4207,127.0928,204.7600,155.3476,0,U,60558,999,2797,.61176E-3,.14983E-3,0
FLOCK 4BE-5,2024-149CV,2025-02-17T04:21:30.055104,15.24470502,.0003711,97.4239,127.5382,209.4075,150.6955,0,U,60559,999,2803,.69664E-3,.17066E-3,0
FLOCK 4BE-12,2024-149CW,2025-02-17T04:50:24.967968,15.25350742,.0004597,97.4164,127.4913,214.8858,145.2079,0,U,60560,999,2804,.7961E-3,.20043E-3,0
FLOCK 4BE-3,2024-149CX,2025-02-17T03:41:53.378592,15.25057655,.0005709,97.4148,127.3686,209.8722,150.2190,0,U,60561,999,2803,.75849E-3,.18926E-3,0
HYPERFIELD-1A,2024-149CY,2025-02-16T21:08:25.370016,15.22847665,.0005288,97.4232,126.9953,215.4349,144.6536,0,U,60562,999,2797,.48914E-3,.11392E-3,0
FLOCK 4BE-19,2024-149CZ,2025-02-16T16:58:13.216224,15.25746436,.0005166,97.4163,127.0948,218.9637,141.1230,0,U,60563,999,2797,.73775E-3,.18789E-3,0
2024-149DA,2024-149DA,2025-02-17T10:43:34.315680,15.06932430,.0001768,97.7166,128.5976,349.9975,10.1217,0,U,60564,999,2765,.31935E-2,.47957E-3,0
PTD-4 (LISA-T),2024-149DB,2025-02-16T18:48:06.136704,15.00974633,.0003723,97.7328,127.3462,256.0421,104.0389,0,U,60565,999,2750,.1673E-2,.21336E-3,0
2024-149DC,2024-149DC,2025-02-16T18:23:46.031136,15.07182004,.0001417,97.7206,127.9835,337.4093,22.7071,0,U,60566,999,2756,.29025E-2,.4385E-3,0
2024-149DD,2024-149DD,2025-02-16T18:08:46.416192,15.07334491,.0000689,97.7266,128.0470,319.5041,40.6135,0,U,60567,999,2755,.28457E-2,.43164E-3,0
2024-149DE,2024-149DE,2025-02-17T11:56:07.472544,15.07226673,.0001278,97.7202,128.7122,332.7414,27.3746,0,U,60568,999,2764,.32441E-2,.49114E-3,0
2024-149DF,2024-149DF,2025-02-16T22:56:44.618208,15.07338673,.0000867,97.7261,128.2444,325.9306,34.1865,0,U,60569,999,2758,.31818E-2,.4831E-3,0
2024-149DG,2024-149DG,2025-02-17T12:01:10.256160,15.07185308,.0001411,97.7198,128.7028,338.4508,21.6659,0,U,60570,999,2766,.33436E-2,.50576E-3,0
2024-149DH,2024-149DH,2025-02-17T04:24:21.990240,15.09340229,.000403,97.7239,128.7088,189.8603,170.2547,0,U,60571,999,2763,.35032E-2,.56242E-3,0
2024-149DJ,2024-149DJ,2025-02-16T18:29:53.006496,15.08303925,.0002845,97.7348,128.2757,202.8461,157.2641,0,U,60572,999,2756,.29617E-2,.46145E-3,0
ION SCV-012,2024-149DK,2025-02-17T04:28:46.972992,14.93213410,.0002129,97.7247,126.5091,253.4430,106.6556,0,U,60573,999,2749,.23068E-3,.2355E-4,0
GNOMES-5,2024-149DL,2025-02-17T05:15:37.792224,14.95740338,.0001876,97.7266,126.9691,250.5057,109.5962,0,U,60574,999,2752,.8535E-3,.9461E-4,0
HAWK-10C,2024-149DM,2025-02-17T06:08:47.146272,14.94021674,.0002547,97.7192,126.5674,223.2890,136.8130,0,U,60575,999,2751,.35909E-3,.3774E-4,0
LEMUR-2-AHMED-ASRAR,2024-149DN,2025-02-17T03:49:48.004032,14.99447283,.0005406,97.7254,127.4807,198.9310,161.1713,0,U,60576,999,2755,.1449E-2,.17742E-3,0
LEMUR-2-LLOYD,2024-149DP,2025-02-16T18:40:23.113056,14.97274135,.0001654,97.7278,126.5957,346.5221,13.5957,0,U,60577,999,2746,.11848E-2,.13691E-3,0
LEMUR-2-SQUIRRELCOMM,2024-149DQ,2025-02-17T04:03:56.791584,14.98195515,.0003896,97.7238,127.2366,224.7479,135.3429,0,U,60578,999,2754,.12018E-2,.14226E-3,0
LEMUR-2-SIERRINI,2024-149DR,2025-02-17T11:17:06.890496,14.97877518,.0001456,97.7280,127.4510,274.7722,85.3334,0,U,60579,999,2757,.15582E-2,.18319E-3,0
SEDNA-1,2024-149DS,2025-02-16T17:05:59.951616,14.98155879,.0005426,97.7267,126.8262,231.6007,128.4728,0,U,60580,999,2747,.10819E-2,.12787E-3,0
STARLINK-31844,2024-150A,2025-02-16T23:49:41.957472,15.30188209,.0000962,53.1602,298.2509,68.3470,291.7633,0,U,60583,999,2899,.19656E-4,.223E-5,0
STARLINK-32204,2024-150B,2025-02-16T22:53:37.711680,15.30192722,.0001395,53.1611,298.7210,82.2631,277.8528,0,U,60584,999,2898,.52111E-4,.1184E-4,0
STARLINK-32130,2024-150C,2025-02-16T21:53:00.881664,15.30184830,.0000903,53.1595,299.1676,61.6657,298.4435,0,U,60585,999,2881,.80832E-4,.2035E-4,0
STARLINK-32173,2024-150D,2025-02-17T09:33:46.602720,15.30185488,.0000971,53.1607,296.5162,99.4369,260.6742,0,U,60586,999,2905,-.35162E-5,-.463E-5,0
STARLINK-31911,2024-150E,2025-02-16T23:13:23.956896,15.30179873,.0001123,53.1607,298.8041,103.4273,256.6853,0,U,60587,999,2886,-.21671E-4,-.1E-4,0
STARLINK-31994,2024-150F,2025-02-17T09:23:08.356416,15.30186332,.0001101,53.1601,296.4700,92.1985,267.9142,0,U,60588,999,2893,.15443E-4,.98E-6,0
STARLINK-32169,2024-150G,2025-02-17T09:08:05.064288,15.30203605,.0000956,53.1605,297.1195,74.3011,285.8095,0,U,60589,999,2904,.99501E-4,.2589E-4,0
STARLINK-32209,2024-150H,2025-02-17T09:41:21.924672,15.30188948,.0001057,53.1592,296.5516,93.8947,266.2175,0,U,60590,999,2905,.48838E-4,.1087E-4,0
STARLINK-32170,2024-150J,2025-02-16T23:36:11.855520,15.30180708,.0001149,53.1593,298.9064,60.7996,299.3120,0,U,60591,999,2886,-.33746E-4,-.1358E-4,0
STARLINK-31497,2024-150K,2025-02-16T23:02:44.447424,15.30231379,.000229,53.1606,298.7601,60.0081,300.1146,0,U,60592,999,2898,-.56165E-3,-.16974E-3,0
STARLINK-32161,2024-150L,2025-02-17T00:14:00.765312,15.30185158,.0001222,53.1603,298.3574,77.2443,282.8695,0,U,60593,999,2894,.34652E-4,.667E-5,0
STARLINK-32210,2024-150M,2025-02-17T09:18:35.288352,15.30174089,.0000863,53.1597,296.4494,102.0143,258.0954,0,U,60594,999,2905,.10157E-3,.2648E-4,0
STARLINK-32202,2024-150N,2025-02-17T11:54:51.802560,15.30340385,.0001268,53.1599,296.4194,90.7225,269.3921,0,U,60595,999,2906,-.10276E-2,-.30801E-3,0
STARLINK-31930,2024-150P,2025-02-17T09:27:41.922144,15.30184167,.0000992,53.1610,296.4897,102.2261,257.8850,0,U,60596,999,2889,-.20038E-5,-.418E-5,0
STARLINK-32162,2024-150Q,2025-02-16T23:40:44.467392,15.30192669,.0000845,53.1588,298.9256,69.5948,290.5144,0,U,60597,999,2898,.23879E-4,.348E-5,0
STARLINK-32208,2024-150R,2025-02-16T22:11:15.229248,15.30183966,.0000927,53.1584,299.2477,69.2762,290.8338,0,U,60598,999,2897,.6142E-4,.146E-4,0
STARLINK-32165,2024-150S,2025-02-16T23:31:38.276832,15.30180264,.0001142,53.1604,298.8870,87.5442,272.5689,0,U,60599,999,2898,-.28204E-4,-.1194E-4,0
STARLINK-31923,2024-150T,2025-02-16T23:16:25.701888,15.30190381,.0001309,53.1608,298.8210,83.6958,276.4192,0,U,60600,999,2898,.34282E-4,.656E-5,0
STARLINK-31988,2024-150U,2025-02-17T10:05:40.895808,15.30193082,.000144,53.1612,296.6556,78.8903,281.2260,0,U,60601,999,2893,.45776E-4,.996E-5,0
STARLINK-31983,2024-150V,2025-02-17T09:47:27.351744,15.30183098,.0001434,53.1612,296.5767,74.1811,285.9348,0,U,60602,999,2893,.91159E-5,-.89E-6,0
STARLINK-31874,2024-150W,2025-02-17T09:56:33.870624,15.30191509,.0001319,53.1594,296.6116,101.7837,258.3311,0,U,60603,999,2905,.60886E-4,.1444E-4,0
STARLINK-32039,2024-150X,2025-02-17T09:42:17.972352,15.30183279,.0001112,53.1606,299.3964,77.9712,282.1413,0,U,60604,999,2901,.36118E-5,-.252E-5,0
ZHONGXING-4A,2024-151A,2025-02-16T18:00:38.744352,1.00271393,.0002753,2.5692,276.3107,55.8344,203.1962,0,U,60606,999,188,0,-.358E-5,0
STARLINK-11247 [DTC],2024-152A,2025-02-16T17:52:08.841792,15.69703830,.0000701,53.1592,219.1440,129.5804,230.5275,0,U,60720,999,2821,.21717E-5,-.325E-5,0
